319P/Catalina-McNaught,e,15.0955,111.3614,203.6591,3.564804,0.1464369,0.66651539,54.2728,04/06.0/2023,2000,g 15.0,4.0
# From MPC 96281
320P/McNaught,e,4.9047,295.9486,0.7843,3.094432,0.1810642,0.68516336,146.5134,04/06.0/2023,2000,g 20.5,4.0
# From MPC105243
321P/SOHO,e,20.0804,165.0181,172.7455,2.423068,0.2613098,0.98107383,0.0000,10/26.6055/2023,2000,g 20.0,4.0
# From MPC102103
322P/SOHO,e,11.4648,351.4953,56.9178,2.507404,0.2482376,0.97997713,0.0000,08/21.0863/2023,2000,g 19.0,4.0
# From MPEC 2016-Y36
323P/SOHO,e,5.3169,324.4118,353.0297,2.583312,0.2373771,0.98473702,0.0000,03/14.4357/2025,2000,g 20.0,4.0
# From MPEC 2021-W31
324P/LaSagra,e,21.4026,270.5847,57.5466,3.094724,0.1810386,0.15359787,126.8994,04/06.0/2023,2000,g 13.0,4.0
# From MPEC 2022-TA0
325P/Yang-Gao,e,16.6978,257.4644,343.8924,3.527739,0.1487509,0.59356374,55.4375,04/06.0/2023,2000,g 14.0,4.0
# From MPC103849
326P/Hill,e,2.4711,99.8085,278.6527,4.062976,0.1203477,0.31835096,327.6851,04/06.0/2023,2000,g 13.5,4.0
# From MPEC 2023-B57
327P/VanNess,e,36.2504,173.9837,185.0188,3.561932,0.1466141,0.56314893,31.6155,04/06.0/2023,2000,g 16.0,4.0
# From MPC109148
328P/LONEOS-Tucker,e,17.6722,341.6212,30.5987,4.190223,0.1149075,0.55273447,304.9698,04/06.0/2023,2000,g 14.5,4.0
# From MPC101101
329P/LINEAR-Catalina,e,21.7094,87.6544,343.5541,5.187663,0.0834154,0.67832134,223.7245,04/06.0/2023,2000,g 13.5,4.0
# From MPEC 2022-K19
330P/Catalina,e,15.7134,293.0812,188.8436,6.620930,0.0578530,0.54903585,139.6602,04/06.0/2023,2000,g 12.0,4.0
# From MPEC 2022-C56
331P/Gibbs,e,9.7398,216.7517,184.5819,3.005214,0.1891868,0.04130748,172.9318,04/06.0/2023,2000,g 12.0,4.0
# From MPEC 2016-K18
332P/Ikeya-Murakami,e,9.3803,3.7827,152.2964,3.087510,0.1816735,0.48930520,108.2259,04/06.0/2023,2000,g 18.0,4.0
# From MPEC 2016-EI8
332P-B/Ikeya-Murakami,e,9.3805,3.8028,152.3711,3.082329,0.1821317,0.48970701,359.9699,03/17.0/2016,2000,g 19.0,4.0
# From MPEC 2016-K18
332P-C/Ikeya-Murakami,e,9.3794,3.7832,152.2876,3.087476,0.1816765,0.48931070,108.2418,04/06.0/2023,2000,g 16.5,4.0
# From MPEC 2016-ED0
332P-D/Ikeya-Murakami,e,9.3761,3.7923,152.4393,3.081138,0.1822373,0.48977814,359.9486,03/17.0/2016,2000,g 19.0,4.0
# From MPEC 2016-ED0
332P-E/Ikeya-Murakami,e,9.3774,3.8228,152.2825,3.079877,0.1823493,0.48922008,359.9889,03/17.0/2016,2000,g 21.0,4.0
# From MPEC 2016-ED0
332P-F/Ikeya-Murakami,e,9.5293,3.4757,152.8203,3.163214,0.1751908,0.49918860,359.8501,03/17.0/2016,2000,g 21.0,4.0
# From MPEC 2016-ED0
332P-G/Ikeya-Murakami,e,9.2523,3.6955,154.4000,3.050519,0.1849880,0.49200362,359.9006,03/19.0/2016,2000,g 19.0,4.0
# From MPC100285
332P-H/Ikeya-Murakami,e,9.3799,3.7829,152.2883,3.087659,0.1816603,0.48934612,108.1671,04/06.0/2023,2000,g 19.0,4.0
# From MPEC 2016-ED0
332P-I/Ikeya-Murakami,e,9.3791,3.8048,152.3297,3.081767,0.1821815,0.48955490,359.9360,03/17.0/2016,2000,g 20.5,2.0
# From MPEC 2016-EI8
332P-J/Ikeya-Murakami,e,9.4296,3.6729,152.7712,3.115165,0.1792596,0.49429435,359.8613,03/17.0/2016,2000,g 20.5,2.0
# From MPEC 2020-L06
333P/LINEAR,e,132.0132,115.6726,25.9875,4.221510,0.1136324,0.73638627,291.4520,04/06.0/2023,2000,g 15.0,4.0
# From MPC115888
334P/NEAT,e,20.3912,90.5647,90.0773,6.834794,0.0551589,0.35061098,117.6286,04/06.0/2023,2000,g 10.5,4.0
# From MPEC 2021-U31
335P/Gibbs,e,7.2928,330.8425,162.3048,3.578488,0.1455978,0.54626029,34.5055,04/06.0/2023,2000,g 17.0,4.0
# From MPC105244
336P/McNaught,e,17.8247,298.2736,308.6690,5.036584,0.0871967,0.44385871,196.8589,04/06.0/2023,2000,g 13.5,4.0
# From MPEC 2022-YN2
337P/WISE,e,15.3679,106.0258,161.1212,3.288591,0.1652682,0.49693554,46.0626,04/06.0/2023,2000,g 17.0,4.0
# From MPEC 2022-K19
338P/McNaught,e,25.3863,9.7983,4.5187,3.893143,0.1283079,0.41213549,297.7898,04/06.0/2023,2000,g 12.0,4.0
# From MPC101101
339P/Gibbs,e,5.7332,172.7229,27.4660,3.700361,0.1384643,0.63564011,339.6522,04/06.0/2023,2000,g 17.0,4.0
# From MPC133426
340P/Boattini,e,2.0779,291.6455,36.0428,4.249896,0.1124959,0.28066738,261.4793,04/06.0/2023,2000,g 14.3,4.0
# From MPEC 2022-K19
341P/Gibbs,e,3.7971,29.9678,312.2810,4.290094,0.1109185,0.41569302,277.1063,04/06.0/2023,2000,g 12.5,4.0
# From MPC101101
342P/SOHO,e,11.6668,27.7113,73.2487,3.041238,0.1858354,0.98281586,0.0000,10/19.2864/2021,2000,g  9.0,4.0
# From MPEC 2022-K19
343P/NEAT-LONEOS,e,5.5922,257.0985,137.5039,5.457806,0.0772996,0.58521820,174.3449,04/06.0/2023,2000,g 14.0,4.0
# From MPC109148
344P/Read,e,3.4958,273.1135,140.4663,4.860406,0.0919804,0.42336057,215.5524,04/06.0/2023,2000,g 13.0,4.0
# From MPEC 2022-K19
345P/LINEAR,e,2.7275,154.5134,196.6329,4.033999,0.1216467,0.22147506,297.6722,04/06.0/2023,2000,g 12.0,4.0
# From MPEC 2022-K19
346P/Catalina,e,22.2064,102.4519,335.9693,4.472722,0.1041948,0.50339526,233.5621,04/06.0/2023,2000,g 14.0,4.0
# From MPEC 2022-K19
347P/PANSTARRS,e,11.7539,261.0200,98.4340,3.604579,0.1440198,0.38620087,344.8670,04/06.0/2023,2000,g 15.0,4.0
# From MPEC 2022-ED3
348P/PANSTARRS,e,17.7369,312.9345,135.6917,3.151810,0.1761424,0.30712984,73.5163,04/06.0/2023,2000,g 14.0,4.0
# From MPEC 2022-K19
349P/Lemmon,e,5.4897,331.7564,255.8623,3.576834,0.1456988,0.29840921,299.1871,04/06.0/2023,2000,g 14.0,4.0
# From MPC111775
350P/McNaught,e,7.3646,65.2941,139.7109,4.083791,0.1194287,0.09363425,231.5842,04/06.0/2023,2000,g 14.0,4.0
# From MPC105244
351P/Wiegert-PANSTARRS,e,12.7780,283.4155,352.6605,4.439612,0.1053626,0.29501381,284.0737,04/06.0/2023,2000,g 12.5,4.0
# From MPC110086
352P/Skiff,e,21.0136,28.0007,309.3700,6.646529,0.0575191,0.61763104,121.5550,04/06.0/2023,2000,g 11.5,4.0
# From MPEC 2020-AA5
353P/McNaught,e,28.4093,121.5169,230.4915,4.170592,0.1157198,0.47031990,223.2494,04/06.0/2023,2000,g 14.5,4.0
# From MPC105545
354P/LINEAR,e,5.2510,320.1018,132.6260,2.290871,0.2842517,0.12499949,305.7832,04/06.0/2023,2000,g 15.5,4.0
# From MPEC 2023-CD7
355P/LINEAR-NEAT,e,11.0470,51.4336,336.3205,3.469005,0.1525445,0.50789381,304.8688,04/06.0/2023,2000,g 15.5,2.0
# From MPEC 2022-F14
356P/WISE,e,9.6374,160.7903,226.0749,4.156389,0.1163134,0.35597140,224.7694,04/06.0/2023,2000,g 14.0,4.0
# From MPC114609
357P/Hill,e,6.3164,44.5580,1.4158,4.457518,0.1047284,0.43588428,185.4447,04/06.0/2023,2000,g 15.5,4.0
# From MPEC 2020-HN5
358P/PANSTARRS,e,11.0600,85.7006,299.7698,3.147004,0.1765461,0.23907097,321.3150,04/06.0/2023,2000,g 18.0,4.0
# From MPC110086
359P/LONEOS,e,10.2647,149.7487,200.2899,4.640396,0.0985988,0.32403518,202.2649,04/06.0/2023,2000,g 13.5,4.0
# From MPC108599
360P/WISE,e,24.1108,2.1898,354.2154,3.699416,0.1385174,0.49929730,284.2823,04/06.0/2023,2000,g 19.5,6.0
# From MPEC 2023-CD7
361P/Spacewatch,e,13.9035,203.2593,219.0094,4.934879,0.0899061,0.43915627,156.1566,04/06.0/2023,2000,g 12.0,4.0
# From MPEC 2017-V13
362P/,e,15.5570,192.5450,53.5707,3.972414,0.1244865,0.27870907,301.3047,04/06.0/2023,2000,g 12.9,2.0
# From MPC114609
363P/Lemmon,e,5.4020,146.8695,340.8834,3.569747,0.1461329,0.51961826,274.1871,04/06.0/2023,2000,g 17.5,4.0
# From MPEC 2023-G31
364P/PANSTARRS,e,12.1364,46.1500,212.0158,2.880372,0.2016189,0.72180962,352.3352,04/06.0/2023,2000,g 17.0,2.0
# From MPC111775
365P/PANSTARRS,e,9.8439,86.3083,67.7558,3.156723,0.1757314,0.58135804,327.2496,04/06.0/2023,2000,g 17.0,4.0
# From MPC114610
366P/Spacewatch,e,8.8569,70.7628,153.0264,3.497250,0.1507003,0.34808996,259.5986,04/06.0/2023,2000,g 15.0,4.0
# From MPC112395
367P/Catalina,e,8.4593,58.7174,172.7700,3.508242,0.1499926,0.27972569,262.9455,04/06.0/2023,2000,g 17.5,2.0
# From MPC114610
368P/NEAT,e,15.4830,257.8338,118.9456,5.530179,0.0757871,0.62670388,126.0502,04/06.0/2023,2000,g 14.0,4.0
# From MPC114610
369P/Hill,e,10.3247,47.2923,13.1603,4.381234,0.1074755,0.55552500,175.4198,04/06.0/2023,2000,g 15.0,4.0
# From MPEC 2021-F20
370P/NEAT,e,19.4272,55.0662,356.7167,6.435154,0.0603762,0.61541384,106.2503,04/06.0/2023,2000,g 13.0,4.0
# From MPC114610
371P/LINEAR-Skiff,e,17.3867,67.2379,308.5739,4.180633,0.1153031,0.47709208,189.3823,04/06.0/2023,2000,g 16.0,4.0
# From MPEC 2020-K19
372P/McNaught,e,9.5055,325.8151,27.6691,4.508567,0.1029547,0.15237555,167.2528,04/06.0/2023,2000,g 13.5,4.0
# From MPEC 2021-F20
373P/Rinner,e,13.7704,231.9653,221.0036,3.800437,0.1330313,0.39304604,193.9194,04/06.0/2023,2000,g 14.5,4.0
# From MPC114610
374P/Larson,e,10.7661,7.9125,51.4570,4.971391,0.0889175,0.46348285,137.3612,04/06.0/2023,2000,g 14.0,4.0
# From MPEC 2021-F20
375P/Hill,e,17.3620,359.9389,119.3639,5.549334,0.0753950,0.65910213,118.1372,04/06.0/2023,2000,g 16.0,4.0
# From MPEC 2022-K19
376P/LONEOS,e,1.1693,313.3634,285.0893,5.763985,0.0712229,0.51557068,92.1342,04/06.0/2023,2000,g 12.5,4.0
# From MPEC 2022-N37
377P/Scotti,e,9.0241,226.0658,354.9927,6.702491,0.0568002,0.25128725,56.7368,04/06.0/2023,2000,g  9.5,4.0
# From MPEC 2023-D41
378P/McNaught,e,19.0716,94.0274,193.5781,6.320172,0.0620313,0.46708205,55.9828,04/06.0/2023,2000,g 12.0,4.0
# From MPC115889
379P/Spacewatch,e,12.4507,183.8322,30.5565,3.504247,0.1502491,0.34543462,201.3441,04/06.0/2023,2000,g 15.0,4.0
# From MPEC 2023-C45
380P/PANSTARRS,e,8.0631,130.5046,86.7706,4.410395,0.1064113,0.34328965,150.9136,04/06.0/2023,2000,g 12.5,4.0
# From MPEC 2021-J28
381P/LINEAR-Spacewatch,e,28.3762,173.7638,173.3060,7.138128,0.0516806,0.68171063,66.5074,04/06.0/2023,2000,g 17.5,2.0
# From MPEC 2022-Y15
382P/Larson,e,8.4061,173.5330,164.9702,6.128398,0.0649656,0.28487488,30.2649,04/06.0/2023,2000,g  8.0,4.0
# From MPEC 2022-OB6
383P/Christensen,e,12.3265,207.8191,133.7865,3.547175,0.1475299,0.59928244,185.5090,04/06.0/2023,2000,g 18.0,4.0
# From MPEC 2022-OB6
384P/Kowalski,e,7.2835,354.2200,37.6541,2.899652,0.1996114,0.61623546,253.7819,04/06.0/2023,2000,g 19.5,4.0
# From MPEC 2021-F20
385P/Hill,e,16.8303,357.0577,44.3579,4.288556,0.1109781,0.40208909,144.0600,04/06.0/2023,2000,g 13.0,4.0
# From MPEC 2021-L04
386P/PANSTARRS,e,15.2329,134.9310,353.1030,4.052321,0.1208226,0.41650052,115.9792,04/06.0/2023,2000,g 14.5,4.0
# From MPEC 2021-J28
